[{"OBJECT_NAME":"QIANFAN-19","OBJECT_ID":"2024-185A","EPOCH":"2026-03-09T23:01:49.129824","MEAN_MOTION":14.14392209,"ECCENTRICITY":0.00082129,"INCLINATION":88.9763,"RA_OF_ASC_NODE":67.9253,"ARG_OF_PERICENTER":39.7684,"MEAN_ANOMALY":320.4104,"EPHEMERIS_TYPE":0,"CLASSIFICATION_TYPE":"U","NORAD_CAT_ID":61552,"ELEMENT_SET_NO":999,"REV_AT_EPOCH":8199,"BSTAR":0.00030187594,"MEAN_MOTION_DOT":5.92e-6,"MEAN_MOTION_DDOT":0},{"OBJECT_NAME":"FENGYUN 1C DEB","OBJECT_ID":"1999-025HA","EPOCH":"2026-03-09T01:43:48.251136","MEAN_MOTION":14.44816846,"ECCENTRICITY":0.0208272,"INCLINATION":99.028,"RA_OF_ASC_NODE":116.4251,"ARG_OF_PERICENTER":62.0815,"MEAN_ANOMALY":300.1293,"EPHEMERIS_TYPE":0,"CLASSIFICATION_TYPE":"U","NORAD_CAT_ID":29904,"ELEMENT_SET_NO":999,"REV_AT_EPOCH":304,"BSTAR":0.00054372394,"MEAN_MOTION_DOT":2.409e-5,"MEAN_MOTION_DDOT":0}]
